start=new Date('2022-01-22T00:00:00.000Z').valueOf();
sats=[{"TIME_SYSTEM":"UTC","OBJECT_TYPE":"PAYLOAD","CENTER_NAME":"EARTH","LAUNCH_DATE":"2020-09-03","FILE":"3279324","DECAY_DATE":null,"INCLINATION":"53.0565","MEAN_MOTION_DDOT":"0.0000000000000","ECCENTRICITY":"0.00020410","TLE_LINE1":"1 46350U 20062AB  22021.49323693 -.00002285  00000-0 -13457-3 0  9996","RA_OF_ASC_NODE":"307.1751","EPOCH":"2022-01-21T11:50:15.670752","OBJECT_NAME":"STARLINK-1617","MEAN_MOTION_DOT":"-0.00002285","REV_AT_EPOCH":"7699","COUNTRY_CODE":"US","MEAN_ELEMENT_THEORY":"SGP4","NORAD_CAT_ID":"46350","ARG_OF_PERICENTER":"66.2601","SITE":"AFETR","MEAN_ANOMALY":"293.8602","SEMIMAJOR_AXIS":"6925.375","OBJECT_ID":"2020-062AB","PERIAPSIS":"545.827","RCS_SIZE":"LARGE","ELEMENT_SET_NO":"999","PERIOD":"95.593","APOAPSIS":"548.654","REF_FRAME":"TEME","TLE_LINE2":"2 46350  53.0565 307.1751 0002041  66.2601 293.8602 15.06391289 76991","MEAN_MOTION":"15.06391289","BSTAR":"-0.00013457000000","CLASSIFICATION_TYPE":"U","GP_ID":"194329599","EPHEMERIS_TYPE":"0"},{"OBJECT_NAME":"STARLINK-1646","EPOCH":"2022-01-21T05:36:04.159008","MEAN_MOTION_DOT":"-0.00002145","TIME_SYSTEM":"UTC","CENTER_NAME":"EARTH","OBJECT_TYPE":"PAYLOAD","FILE":"3279324","LAUNCH_DATE":"2020-09-03","DECAY_DATE":null,"INCLINATION":"53.0543","MEAN_MOTION_DDOT":"0.0000000000000","ECCENTRICITY":"0.00017180","TLE_LINE1":"1 46351U 20062AC  22021.23338147 -.00002145  00000-0 -12523-3 0  9997","RA_OF_ASC_NODE":"288.3370","RCS_SIZE":"LARGE","PERIAPSIS":"546.077","ELEMENT_SET_NO":"999","PERIOD":"95.593","APOAPSIS":"548.456","REF_FRAME":"TEME","TLE_LINE2":"2 46351  53.0543 288.3370 0001718  59.5251 300.5908 15.06382737 77232","MEAN_MOTION":"15.06382737","BSTAR":"-0.00012523000000","CLASSIFICATION_TYPE":"U","GP_ID":"194327850","EPHEMERIS_TYPE":"0","REV_AT_EPOCH":"7723","ARG_OF_PERICENTER":"59.5251","COUNTRY_CODE":"US","MEAN_ELEMENT_THEORY":"SGP4","NORAD_CAT_ID":"46351","SITE":"AFETR","MEAN_ANOMALY":"300.5908","SEMIMAJOR_AXIS":"6925.401","OBJECT_ID":"2020-062AC"},{"PERIAPSIS":"546.070","RCS_SIZE":"LARGE","ELEMENT_SET_NO":"999","PERIOD":"95.592","REF_FRAME":"TEME","APOAPSIS":"548.365","TLE_LINE2":"2 46352  53.0537 289.3127 0001657  70.9304 289.1864 15.06398688 77207","MEAN_MOTION":"15.06398688","BSTAR":"-0.00001815900000","CLASSIFICATION_TYPE":"U","GP_ID":"194328595","EPHEMERIS_TYPE":"0","REV_AT_EPOCH":"7720","COUNTRY_CODE":"US","MEAN_ELEMENT_THEORY":"SGP4","NORAD_CAT_ID":"46352","ARG_OF_PERICENTER":"70.9304","SITE":"AFETR","MEAN_ANOMALY":"289.1864","OBJECT_ID":"2020-062AD","SEMIMAJOR_AXIS":"6925.353","EPOCH":"2022-01-21T00:22:52.557312","OBJECT_NAME":"STARLINK-1653","MEAN_MOTION_DOT":"-0.00000552","TIME_SYSTEM":"UTC","CENTER_NAME":"EARTH","OBJECT_TYPE":"PAYLOAD","FILE":"3279324","LAUNCH_DATE":"2020-09-03","DECAY_DATE":null,"INCLINATION":"53.0537","MEAN_MOTION_DDOT":"0.0000000000000","ECCENTRICITY":"0.00016570","RA_OF_ASC_NODE":"289.3127","TLE_LINE1":"1 46352U 20062AD  22021.01588608 -.00000552  00000-0 -18159-4 0  9995"},{"SITE":"AFETR","MEAN_ANOMALY":"295.3484","ARG_OF_PERICENTER":"64.7694","COUNTRY_CODE":"US","MEAN_ELEMENT_THEORY":"SGP4","NORAD_CAT_ID":"46353","REV_AT_EPOCH":"7698","SEMIMAJOR_AXIS":"6925.398","OBJECT_ID":"2020-062AE","BSTAR":"-0.00012198000000","MEAN_MOTION":"15.06383953","TLE_LINE2":"2 46353  53.0560 307.2479 0001819  64.7694 295.3484 15.06383953 76987","REF_FRAME":"TEME","APOAPSIS":"548.522","PERIOD":"95.593","ELEMENT_SET_NO":"999","PERIAPSIS":"546.003","RCS_SIZE":"LARGE","EPHEMERIS_TYPE":"0","CLASSIFICATION_TYPE":"U","GP_ID":"194329349","INCLINATION":"53.0560","DECAY_DATE":null,"FILE":"3279324","LAUNCH_DATE":"2020-09-03","OBJECT_TYPE":"PAYLOAD","CENTER_NAME":"EARTH","TIME_SYSTEM":"UTC","RA_OF_ASC_NODE":"307.2479","TLE_LINE1":"1 46353U 20062AE  22021.47849505 -.00002097  00000-0 -12198-3 0  9994","ECCENTRICITY":"0.00018190","MEAN_MOTION_DDOT":"0.0000000000000","MEAN_MOTION_DOT":"-0.00002097","EPOCH":"2022-01-21T11:29:01.972320","OBJECT_NAME":"STARLINK-1656"},{"MEAN_MOTION":"15.06399638","BSTAR":"0.00015322000000","REF_FRAME":"TEME","APOAPSIS":"548.555","TLE_LINE2":"2 46354  53.0542 308.1778 0001935  61.1534 298.9649 15.06399638 76959","ELEMENT_SET_NO":"999","PERIOD":"95.592","PERIAPSIS":"545.875","RCS_SIZE":"LARGE","GP_ID":"194329100","CLASSIFICATION_TYPE":"U","EPHEMERIS_TYPE":"0","MEAN_ANOMALY":"298.9649","SITE":"AFETR","COUNTRY_CODE":"US","NORAD_CAT_ID":"46354","ARG_OF_PERICENTER":"61.1534","MEAN_ELEMENT_THEORY":"SGP4","REV_AT_EPOCH":"7695","OBJECT_ID":"2020-062AF","SEMIMAJOR_AXIS":"6925.350","MEAN_MOTION_DOT":"0.00002001","EPOCH":"2022-01-21T06:26:30.305184","OBJECT_NAME":"STARLINK-1657","DECAY_DATE":null,"INCLINATION":"53.0542","OBJECT_TYPE":"PAYLOAD","CENTER_NAME":"EARTH","LAUNCH_DATE":"2020-09-03","FILE":"3279324","TIME_SYSTEM":"UTC","TLE_LINE1":"1 46354U 20062AF  22021.26840631  .00002001  00000-0  15322-3 0  9998","RA_OF_ASC_NODE":"308.1778","MEAN_MOTION_DDOT":"0.0000000000000","ECCENTRICITY":"0.00019350"},{"RA_OF_ASC_NODE":"305.9197","TLE_LINE1":"1 46355U 20062AG  22021.77336627  .00002783  00000-0  20558-3 0  9994","ECCENTRICITY":"0.00016800","MEAN_MOTION_DDOT":"0.0000000000000","FILE":"3279399","LAUNCH_DATE":"2020-09-03","OBJECT_TYPE":"PAYLOAD","CENTER_NAME":"EARTH","TIME_SYSTEM":"UTC","DECAY_DATE":null,"INCLINATION":"53.0543","OBJECT_NAME":"STARLINK-1661","EPOCH":"2022-01-21T18:33:38.845728","MEAN_MOTION_DOT":"0.00002783","OBJECT_ID":"2020-062AG","SEMIMAJOR_AXIS":"6925.317","REV_AT_EPOCH":"7721","MEAN_ANOMALY":"289.2060","SITE":"AFETR","COUNTRY_CODE":"US","NORAD_CAT_ID":"46355","MEAN_ELEMENT_THEORY":"SGP4","ARG_OF_PERICENTER":"70.9111","EPHEMERIS_TYPE":"0","CLASSIFICATION_TYPE":"U","GP_ID":"194333683","PERIOD":"95.591","ELEMENT_SET_NO":"999","PERIAPSIS":"546.019","RCS_SIZE":"LARGE","BSTAR":"0.00020558000000","MEAN_MOTION":"15.06410239","TLE_LINE2":"2 46355  53.0543 305.9197 0001680  70.9111 289.2060 15.06410239 77218","APOAPSIS":"548.346","REF_FRAME":"TEME"},{"REV_AT_EPOCH":"7699","COUNTRY_CODE":"US","ARG_OF_PERICENTER":"63.5954","MEAN_ELEMENT_THEORY":"SGP4","NORAD_CAT_ID":"46356","SITE":"AFETR","MEAN_ANOMALY":"296.5214","OBJECT_ID":"2020-062AH","SEMIMAJOR_AXIS":"6925.379","PERIAPSIS":"546.041","RCS_SIZE":"LARGE","PERIOD":"95.593","ELEMENT_SET_NO":"999","TLE_LINE2":"2 46356  53.0538 307.0620 0001737  63.5954 296.5214 15.06390016 76999","APOAPSIS":"548.447","REF_FRAME":"TEME","BSTAR":"-0.00008264500000","MEAN_MOTION":"15.06390016","EPHEMERIS_TYPE":"0","GP_ID":"194328096","CLASSIFICATION_TYPE":"U","TIME_SYSTEM":"UTC","FILE":"3279324","LAUNCH_DATE":"2020-09-03","OBJECT_TYPE":"PAYLOAD","CENTER_NAME":"EARTH","DECAY_DATE":null,"INCLINATION":"53.0538","ECCENTRICITY":"0.00017370","MEAN_MOTION_DDOT":"0.0000000000000","TLE_LINE1":"1 46356U 20062AH  22021.51904159 -.00001512  00000-0 -82645-4 0  9995","RA_OF_ASC_NODE":"307.0620","EPOCH":"2022-01-21T12:27:25.193376","OBJECT_NAME":"STARLINK-1665","MEAN_MOTION_DOT":"-0.00001512"},{"INCLINATION":"53.0535","DECAY_DATE":null,"OBJECT_TYPE":"PAYLOAD","CENTER_NAME":"EARTH","LAUNCH_DATE":"2020-09-03","FILE":"3279324","TIME_SYSTEM":"UTC","RA_OF_ASC_NODE":"287.3769","TLE_LINE1":"1 46357U 20062AJ  22021.45084731 -.00000202  00000-0  53233-5 0  9990","MEAN_MOTION_DDOT":"0.0000000000000","ECCENTRICITY":"0.00016750","MEAN_MOTION_DOT":"-0.00000202","OBJECT_NAME":"STARLINK-1666","EPOCH":"2022-01-21T10:49:13.207584","MEAN_ANOMALY":"303.8422","SITE":"AFETR","COUNTRY_CODE":"US","ARG_OF_PERICENTER":"56.2726","MEAN_ELEMENT_THEORY":"SGP4","NORAD_CAT_ID":"46357","REV_AT_EPOCH":"7726","SEMIMAJOR_AXIS":"6925.374","OBJECT_ID":"2020-062AJ","MEAN_MOTION":"15.06391536","BSTAR":"0.00000532330000","APOAPSIS":"548.399","REF_FRAME":"TEME","TLE_LINE2":"2 46357  53.0535 287.3769 0001675  56.2726 303.8422 15.06391536 77260","ELEMENT_SET_NO":"999","PERIOD":"95.593","PERIAPSIS":"546.079","RCS_SIZE":"LARGE","GP_ID":"194328850","CLASSIFICATION_TYPE":"U","EPHEMERIS_TYPE":"0"},{"MEAN_MOTION_DOT":"-0.00002190","EPOCH":"2022-01-21T11:55:34.741632","OBJECT_NAME":"STARLINK-1690","MEAN_MOTION_DDOT":"0.0000000000000","ECCENTRICITY":"0.00016870","RA_OF_ASC_NODE":"307.1534","TLE_LINE1":"1 46358U 20062AK  22021.49692988 -.00002190  00000-0 -12822-3 0  9990","INCLINATION":"53.0542","DECAY_DATE":null,"TIME_SYSTEM":"UTC","CENTER_NAME":"EARTH","OBJECT_TYPE":"PAYLOAD","LAUNCH_DATE":"2020-09-03","FILE":"3279324","CLASSIFICATION_TYPE":"U","GP_ID":"194329600","EPHEMERIS_TYPE":"0","REF_FRAME":"TEME","APOAPSIS":"548.440","TLE_LINE2":"2 46358  53.0542 307.1534 0001687  69.4823 290.6347 15.06381195 76995","MEAN_MOTION":"15.06381195","BSTAR":"-0.00012822000000","PERIAPSIS":"546.103","RCS_SIZE":"LARGE","ELEMENT_SET_NO":"999","PERIOD":"95.593","OBJECT_ID":"2020-062AK","SEMIMAJOR_AXIS":"6925.406","COUNTRY_CODE":"US","MEAN_ELEMENT_THEORY":"SGP4","NORAD_CAT_ID":"46358","ARG_OF_PERICENTER":"69.4823","SITE":"AFETR","MEAN_ANOMALY":"290.6347","REV_AT_EPOCH":"7699"},{"REV_AT_EPOCH":"7755","SITE":"AFETR","MEAN_ANOMALY":"296.7075","COUNTRY_CODE":"US","NORAD_CAT_ID":"46359","MEAN_ELEMENT_THEORY":"SGP4","ARG_OF_PERICENTER":"63.4098","OBJECT_ID":"2020-062AL","SEMIMAJOR_AXIS":"6925.341","ELEMENT_SET_NO":"999","PERIOD":"95.592","PERIAPSIS":"545.961","RCS_SIZE":"LARGE","MEAN_MOTION":"15.06402304","BSTAR":"0.00026405000000","REF_FRAME":"TEME","APOAPSIS":"548.452","TLE_LINE2":"2 46359  53.0536 264.0422 0001798  63.4098 296.7075 15.06402304 77551","CLASSIFICATION_TYPE":"U","GP_ID":"194327851","EPHEMERIS_TYPE":"0","CENTER_NAME":"EARTH","OBJECT_TYPE":"PAYLOAD","LAUNCH_DATE":"2020-09-03","FILE":"3279324","TIME_SYSTEM":"UTC","INCLINATION":"53.0536","DECAY_DATE":null,"RA_OF_ASC_NODE":"264.0422","TLE_LINE1":"1 46359U 20062AL  22021.07903490  .00003654  00000-0  26405-3 0  9994","MEAN_MOTION_DDOT":"0.0000000000000","ECCENTRICITY":"0.00017980","EPOCH":"2022-01-21T01:53:48.615360","OBJECT_NAME":"STARLINK-1707","MEAN_MOTION_DOT":"0.00003654"}];
